IRIDIUM 26              
1 24903U 97043A   25112.41437698  .00000719  00000+0  23563-3 0  9992
2 24903  86.3939 134.0560 0002118  90.9371 269.2069 14.37091243448732
IRIDIUM 22              
1 24907U 97043E   25112.57699477  .00000594  00000+0  19829-3 0  9999
2 24907  86.3949 137.4772 0002302  91.9595 268.1866 14.35912119448794
DUMMY MASS 1            
1 24925U 97048A   25112.56175162  .00000688  00000+0  73824-4 0  9993
2 24925  86.3374 161.0436 0006386   5.6279 354.5016 14.86935908496868
DUMMY MASS 2            
1 24926U 97048B   25112.58195564  .00000679  00000+0  73307-4 0  9990
2 24926  86.3378 162.6298 0007624  14.1796 345.9641 14.86688692496640
IRIDIUM 29              
1 24944U 97051A   25112.20152777  .00000666  00000+0  22084-3 0  9993
2 24944  86.4000 167.3696 0002494  93.4742 266.6740 14.36414995445234
IRIDIUM 33              
1 24946U 97051C   25112.61034447  .00000423  00000+0  14204-3 0  9999
2 24946  86.3913 166.4543 0005614 254.9236 105.1339 14.34856068444776
IRIDIUM 28              
1 24948U 97051E   25112.55928689  .00000592  00000+0  19174-3 0  9992
2 24948  86.4002 164.7699 0001843  93.8134 266.3274 14.37341980445851
IRIDIUM 36              
1 24967U 97056C   25112.32235691  .00000711  00000+0  23067-3 0  9996
2 24967  86.4031 196.4398 0002186 101.4313 258.7130 14.37558430444190
